FLOCK 4Q-16             
1 58271U 23174R   26192.76822083  .00012424  00000+0  22107-3 0  9993
2 58271  97.3831 281.4636 0006971  86.7537 273.4512 15.50267441149389
FLOCK 4Q-11             
1 58273U 23174T   26192.80687313  .00015955  00000+0  27837-3 0  9992
2 58273  97.3864 282.1346 0006596  81.2174 278.9824 15.50768281149400
FLOCK 4Q-28             
1 58280U 23174AA  26192.80822241  .00020215  00000+0  28505-3 0  9999
2 58280  97.3887 284.8397 0005182  71.4040 288.7778 15.56626887149577
FLOCK 4Q-27             
1 58282U 23174AC  26192.81043467  .00019780  00000+0  27699-3 0  9995
2 58282  97.3813 284.2516 0004430  77.1112 283.0638 15.56822657149580
FLOCK 4Q-7              
1 58318U 23174BQ  26192.70095675  .00022017  00000+0  30377-3 0  9995
2 58318  97.3916 285.0506 0004896  57.6263 302.5466 15.57199465149567
FLOCK 4Q-2              
1 58320U 23174BS  26192.98520753  .00015184  00000+0  26544-3 0  9996
2 58320  97.3843 282.0317 0005133  61.7085 298.4684 15.50731909149449
FLOCK 4Q-9              
1 58322U 23174BU  26192.80942579  .00017304  00000+0  29692-3 0  9996
2 58322  97.3861 281.9592 0005980  62.9295 297.2566 15.51225011149405
FLOCK 4Q-4              
1 58327U 23174BZ  26192.82045911  .00014067  00000+0  25462-3 0  9991
2 58327  97.3829 281.0949 0006126  84.6100 275.5850 15.49756250149372
FLOCK 4Q-13             
1 58328U 23174CA  26192.81204799  .00015127  00000+0  24590-3 0  9991
2 58328  97.4007 284.3664 0006183  65.7003 294.4895 15.52773394149491
FLOCK 4BE-18            
1 60480U 24149N   26192.80097847  .00008312  00000+0  19276-3 0  9992
2 60480  97.3728 276.8003 0004912 153.7878 206.3619 15.42653469106107
FLOCK 4BE-7             
1 60481U 24149P   26192.76642868  .00014227  00000+0  34275-3 0  9995
2 60481  97.3757 276.0611 0004226 159.1704 200.9716 15.41356726106038
FLOCK 4BE-36            
1 60486U 24149U   26192.75926419  .00009760  00000+0  21992-3 0  9994
2 60486  97.3741 277.4935 0004464 160.8168 199.3249 15.43465304106146
FLOCK 4BE-25            
1 60487U 24149V   26192.79275714  .00008664  00000+0  22298-3 0  9996
2 60487  97.3799 276.1193 0003519 149.7719 210.3730 15.39482396106021
FLOCK 4BE-31            
1 60488U 24149W   26192.76664527  .00012817  00000+0  27307-3 0  9999
2 60488  97.3802 278.4321 0003560 158.2303 201.9097 15.45058396106179
FLOCK 4BE-20            
1 60489U 24149X   26192.76826243  .00008677  00000+0  22866-3 0  9999
2 60489  97.3697 274.9117 0004740 161.5503 198.5915 15.38748408105997
FLOCK 4BE-23            
1 60490U 24149Y   26192.76515466  .00008134  00000+0  21764-3 0  9997
2 60490  97.3793 275.2968 0004245 164.9328 195.2044 15.38303174105978
