{"fetched_at":"2026-07-12T07:15:21.624Z","source":"https://celestrak.org/NORAD/elements/gp.php?GROUP=planet&FORMAT=JSON","constellation":"superdove","records":[{"OBJECT_NAME":"FLOCK 4Q-16","OBJECT_ID":"2023-174R","EPOCH":"2026-07-11T18:26:14.279712","CLASSIFICATION_TYPE":"U","MEAN_MOTION":15.50267441,"ECCENTRICITY":0.00069715,"INCLINATION":97.3831,"RA_OF_ASC_NODE":281.4636,"ARG_OF_PERICENTER":86.7537,"MEAN_ANOMALY":273.4512,"EPHEMERIS_TYPE":0,"NORAD_CAT_ID":58271,"ELEMENT_SET_NO":999,"REV_AT_EPOCH":14938,"BSTAR":0.00022106837,"MEAN_MOTION_DOT":0.00012424,"MEAN_MOTION_DDOT":0},{"OBJECT_NAME":"FLOCK 4Q-11","OBJECT_ID":"2023-174T","EPOCH":"2026-07-11T19:21:53.838432","CLASSIFICATION_TYPE":"U","MEAN_MOTION":15.50768281,"ECCENTRICITY":0.0006596,"INCLINATION":97.3864,"RA_OF_ASC_NODE":282.1346,"ARG_OF_PERICENTER":81.2174,"MEAN_ANOMALY":278.9824,"EPHEMERIS_TYPE":0,"NORAD_CAT_ID":58273,"ELEMENT_SET_NO":999,"REV_AT_EPOCH":14940,"BSTAR":0.00027837475,"MEAN_MOTION_DOT":0.00015955,"MEAN_MOTION_DDOT":0},{"OBJECT_NAME":"FLOCK 4Q-28","OBJECT_ID":"2023-174AA","EPOCH":"2026-07-11T19:23:50.416224","CLASSIFICATION_TYPE":"U","MEAN_MOTION":15.56626887,"ECCENTRICITY":0.00051829,"INCLINATION":97.3887,"RA_OF_ASC_NODE":284.8397,"ARG_OF_PERICENTER":71.404,"MEAN_ANOMALY":288.7778,"EPHEMERIS_TYPE":0,"NORAD_CAT_ID":58280,"ELEMENT_SET_NO":999,"REV_AT_EPOCH":14957,"BSTAR":0.0002850548,"MEAN_MOTION_DOT":0.00020215,"MEAN_MOTION_DDOT":0},{"OBJECT_NAME":"FLOCK 4Q-27","OBJECT_ID":"2023-174AC","EPOCH":"2026-07-11T19:27:01.555488","CLASSIFICATION_TYPE":"U","MEAN_MOTION":15.56822657,"ECCENTRICITY":0.00044302,"INCLINATION":97.3813,"RA_OF_ASC_NODE":284.2516,"ARG_OF_PERICENTER":77.1112,"MEAN_ANOMALY":283.0638,"EPHEMERIS_TYPE":0,"NORAD_CAT_ID":58282,"ELEMENT_SET_NO":999,"REV_AT_EPOCH":14958,"BSTAR":0.00027699004,"MEAN_MOTION_DOT":0.0001978,"MEAN_MOTION_DDOT":0},{"OBJECT_NAME":"FLOCK 4Q-7","OBJECT_ID":"2023-174BQ","EPOCH":"2026-07-11T16:49:22.663200","CLASSIFICATION_TYPE":"U","MEAN_MOTION":15.57199465,"ECCENTRICITY":0.00048965,"INCLINATION":97.3916,"RA_OF_ASC_NODE":285.0506,"ARG_OF_PERICENTER":57.6263,"MEAN_ANOMALY":302.5466,"EPHEMERIS_TYPE":0,"NORAD_CAT_ID":58318,"ELEMENT_SET_NO":999,"REV_AT_EPOCH":14956,"BSTAR":0.00030377247,"MEAN_MOTION_DOT":0.00022017,"MEAN_MOTION_DDOT":0},{"OBJECT_NAME":"FLOCK 4Q-2","OBJECT_ID":"2023-174BS","EPOCH":"2026-07-11T23:38:41.930592","CLASSIFICATION_TYPE":"U","MEAN_MOTION":15.50731909,"ECCENTRICITY":0.00051332,"INCLINATION":97.3843,"RA_OF_ASC_NODE":282.0317,"ARG_OF_PERICENTER":61.7085,"MEAN_ANOMALY":298.4684,"EPHEMERIS_TYPE":0,"NORAD_CAT_ID":58320,"ELEMENT_SET_NO":999,"REV_AT_EPOCH":14944,"BSTAR":0.00026544083,"MEAN_MOTION_DOT":0.00015184,"MEAN_MOTION_DDOT":0},{"OBJECT_NAME":"FLOCK 4Q-9","OBJECT_ID":"2023-174BU","EPOCH":"2026-07-11T19:25:34.388256","CLASSIFICATION_TYPE":"U","MEAN_MOTION":15.51225011,"ECCENTRICITY":0.00059806,"INCLINATION":97.3861,"RA_OF_ASC_NODE":281.9592,"ARG_OF_PERICENTER":62.9295,"MEAN_ANOMALY":297.2566,"EPHEMERIS_TYPE":0,"NORAD_CAT_ID":58322,"ELEMENT_SET_NO":999,"REV_AT_EPOCH":14940,"BSTAR":0.00029692291,"MEAN_MOTION_DOT":0.00017304,"MEAN_MOTION_DDOT":0},{"OBJECT_NAME":"FLOCK 4Q-4","OBJECT_ID":"2023-174BZ","EPOCH":"2026-07-11T19:41:27.667104","CLASSIFICATION_TYPE":"U","MEAN_MOTION":15.4975625,"ECCENTRICITY":0.00061267,"INCLINATION":97.3829,"RA_OF_ASC_NODE":281.0949,"ARG_OF_PERICENTER":84.61,"MEAN_ANOMALY":275.585,"EPHEMERIS_TYPE":0,"NORAD_CAT_ID":58327,"ELEMENT_SET_NO":999,"REV_AT_EPOCH":14937,"BSTAR":0.00025461775,"MEAN_MOTION_DOT":0.00014067,"MEAN_MOTION_DDOT":0},{"OBJECT_NAME":"FLOCK 4Q-13","OBJECT_ID":"2023-174CA","EPOCH":"2026-07-11T19:29:20.946336","CLASSIFICATION_TYPE":"U","MEAN_MOTION":15.52773394,"ECCENTRICITY":0.00061835,"INCLINATION":97.4007,"RA_OF_ASC_NODE":284.3664,"ARG_OF_PERICENTER":65.7003,"MEAN_ANOMALY":294.4895,"EPHEMERIS_TYPE":0,"NORAD_CAT_ID":58328,"ELEMENT_SET_NO":999,"REV_AT_EPOCH":14949,"BSTAR":0.00024589551,"MEAN_MOTION_DOT":0.00015127,"MEAN_MOTION_DDOT":0},{"OBJECT_NAME":"FLOCK 4BE-18","OBJECT_ID":"2024-149N","EPOCH":"2026-07-11T19:13:24.539808","CLASSIFICATION_TYPE":"U","MEAN_MOTION":15.42653469,"ECCENTRICITY":0.00049123,"INCLINATION":97.3728,"RA_OF_ASC_NODE":276.8003,"ARG_OF_PERICENTER":153.7878,"MEAN_ANOMALY":206.3619,"EPHEMERIS_TYPE":0,"NORAD_CAT_ID":60480,"ELEMENT_SET_NO":999,"REV_AT_EPOCH":10610,"BSTAR":0.00019276175,"MEAN_MOTION_DOT":0.00008312,"MEAN_MOTION_DDOT":0},{"OBJECT_NAME":"FLOCK 4BE-7","OBJECT_ID":"2024-149P","EPOCH":"2026-07-11T18:23:39.437952","CLASSIFICATION_TYPE":"U","MEAN_MOTION":15.41356726,"ECCENTRICITY":0.00042269,"INCLINATION":97.3757,"RA_OF_ASC_NODE":276.0611,"ARG_OF_PERICENTER":159.1704,"MEAN_ANOMALY":200.9716,"EPHEMERIS_TYPE":0,"NORAD_CAT_ID":60481,"ELEMENT_SET_NO":999,"REV_AT_EPOCH":10603,"BSTAR":0.0003427462,"MEAN_MOTION_DOT":0.00014227,"MEAN_MOTION_DDOT":0},{"OBJECT_NAME":"FLOCK 4BE-36","OBJECT_ID":"2024-149U","EPOCH":"2026-07-11T18:13:20.426016","CLASSIFICATION_TYPE":"U","MEAN_MOTION":15.43465304,"ECCENTRICITY":0.00044644,"INCLINATION":97.3741,"RA_OF_ASC_NODE":277.4935,"ARG_OF_PERICENTER":160.8168,"MEAN_ANOMALY":199.3249,"EPHEMERIS_TYPE":0,"NORAD_CAT_ID":60486,"ELEMENT_SET_NO":999,"REV_AT_EPOCH":10614,"BSTAR":0.00021991508,"MEAN_MOTION_DOT":0.0000976,"MEAN_MOTION_DDOT":0},{"OBJECT_NAME":"FLOCK 4BE-25","OBJECT_ID":"2024-149V","EPOCH":"2026-07-11T19:01:34.216896","CLASSIFICATION_TYPE":"U","MEAN_MOTION":15.39482396,"ECCENTRICITY":0.00035193,"INCLINATION":97.3799,"RA_OF_ASC_NODE":276.1193,"ARG_OF_PERICENTER":149.7719,"MEAN_ANOMALY":210.373,"EPHEMERIS_TYPE":0,"NORAD_CAT_ID":60487,"ELEMENT_SET_NO":999,"REV_AT_EPOCH":10602,"BSTAR":0.00022297906,"MEAN_MOTION_DOT":0.00008664,"MEAN_MOTION_DDOT":0},{"OBJECT_NAME":"FLOCK 4BE-31","OBJECT_ID":"2024-149W","EPOCH":"2026-07-11T18:23:58.151328","CLASSIFICATION_TYPE":"U","MEAN_MOTION":15.45058396,"ECCENTRICITY":0.00035602,"INCLINATION":97.3802,"RA_OF_ASC_NODE":278.4321,"ARG_OF_PERICENTER":158.2303,"MEAN_ANOMALY":201.9097,"EPHEMERIS_TYPE":0,"NORAD_CAT_ID":60488,"ELEMENT_SET_NO":999,"REV_AT_EPOCH":10617,"BSTAR":0.00027307254,"MEAN_MOTION_DOT":0.00012817,"MEAN_MOTION_DDOT":0},{"OBJECT_NAME":"FLOCK 4BE-20","OBJECT_ID":"2024-149X","EPOCH":"2026-07-11T18:26:17.873952","CLASSIFICATION_TYPE":"U","MEAN_MOTION":15.38748408,"ECCENTRICITY":0.00047401,"INCLINATION":97.3697,"RA_OF_ASC_NODE":274.9117,"ARG_OF_PERICENTER":161.5503,"MEAN_ANOMALY":198.5915,"EPHEMERIS_TYPE":0,"NORAD_CAT_ID":60489,"ELEMENT_SET_NO":999,"REV_AT_EPOCH":10599,"BSTAR":0.00022866286,"MEAN_MOTION_DOT":0.00008677,"MEAN_MOTION_DDOT":0},{"OBJECT_NAME":"FLOCK 4BE-23","OBJECT_ID":"2024-149Y","EPOCH":"2026-07-11T18:21:49.362624","CLASSIFICATION_TYPE":"U","MEAN_MOTION":15.38303174,"ECCENTRICITY":0.00042453,"INCLINATION":97.3793,"RA_OF_ASC_NODE":275.2968,"ARG_OF_PERICENTER":164.9328,"MEAN_ANOMALY":195.2044,"EPHEMERIS_TYPE":0,"NORAD_CAT_ID":60490,"ELEMENT_SET_NO":999,"REV_AT_EPOCH":10597,"BSTAR":0.00021763546,"MEAN_MOTION_DOT":0.00008134,"MEAN_MOTION_DDOT":0}]}
